32P/ComasSola,e,9.8952,54.7322,54.8689,4.547112,0.1016484,0.55733942,304.0516,10/18.0/2022,2000,g  6.5,8.0
# From MPEC 2013-O31
33P/Daniel,e,22.2947,66.3030,20.4738,4.087603,0.1192617,0.45172865,269.8662,10/18.0/2022,2000,g 10.0,12.0
# From  15, 452
35P/Herschel-Rigollet,e,65.277,356.734,28.965,28.5491,0.006461,0.9742972,0.000,02/02.2825/2092,2000,g  9.0,4.0
# From MPEC 2022-ED3
36P/Whipple,e,9.9528,181.8410,201.0039,4.136496,0.1171535,0.26910366,101.7186,10/18.0/2022,2000,g  8.5,6.0
# From MPEC 2021-F20
37P/Forbes,e,8.9531,314.5670,330.1107,3.461454,0.1530440,0.53321176,249.1763,10/18.0/2022,2000,g 13.8,4.0
# From MPEC 2018-S50
38P/Stephan-Oterma,e,18.3844,77.9148,359.5003,11.23663,0.0261668,0.85934231,37.5849,10/18.0/2022,2000,g  3.5,12.0
# From MPEC 2022-A21
39P/Oterma,e,1.5452,298.0237,99.4220,7.308872,0.0498802,0.21852086,347.7209,10/18.0/2022,2000,g  7.0,6.0
# From MPC100283
40P/Vaisala,e,11.4672,133.7481,47.3880,4.954662,0.0893682,0.63024071,259.4664,10/18.0/2022,2000,g  5.5,12.0
# From MPC105240
41P/Tuttle-Giacobini-Kresak,e,9.2206,140.9886,62.2097,3.088201,0.1816125,0.65994868,6.2822,10/18.0/2022,2000,g 10.0,16.0
# From MPC 94283
42P/Neujmin,e,3.9913,150.1752,147.2329,4.873672,0.0916051,0.58477908,251.5051,10/18.0/2022,2000,g 13.0,6.0
# From MPEC 2022-C56
43P/Wolf-Harrington,e,9.3320,244.0446,224.0875,4.319641,0.1097824,0.43523219,247.6550,10/18.0/2022,2000,g  8.0,6.0
# From MPEC 2022-TA0
44P/Reinmuth,e,5.8960,286.4366,58.0617,3.690502,0.1390196,0.42760904,24.7284,10/18.0/2022,2000,g  8.3,6.0
# From MPEC 2022-O01
45P/Honda-Mrkos-Pajdusakova,e,4.3227,87.6988,327.9133,3.055335,0.1845507,0.81762790,32.1201,10/18.0/2022,2000,g 13.5,8.0
# From MPEC 2021-O56
46P/Wirtanen,e,11.7484,82.1598,356.3266,3.091732,0.1813015,0.65862781,254.9199,10/18.0/2022,2000,g 14.0,6.0
# From MPEC 2022-HC2
47P/Ashbrook-Jackson,e,13.0411,356.9210,357.7272,4.122412,0.1177544,0.31869806,229.8667,10/18.0/2022,2000,g  1.0,11.2
# From MPEC 2021-F20
48P/Johnson,e,12.2016,110.1016,216.7266,3.501058,0.1504545,0.42724453,229.6704,10/18.0/2022,2000,g 12.4,4.0
# From MPEC 2021-F20
49P/Arend-Rigaux,e,19.0502,118.7927,332.9199,3.569534,0.1461459,0.59847310,227.5922,10/18.0/2022,2000,g 13.4,4.0
# From MPEC 2015-S97
50P/Arend,e,19.1007,355.1770,49.3365,4.087697,0.1192576,0.52953346,291.6784,10/18.0/2022,2000,g  9.5,6.0
# From MPEC 2022-TA0
51P/Harrington,e,5.4258,83.6687,269.2748,3.708646,0.1380006,0.54357982,2.3010,10/18.0/2022,2000,g 10.0,8.0
# From NK 3014
51P-A/Harrington,e,5.4258,83.6690,269.2508,3.709909,0.1379302,0.54375615,1.9458,10/18.0/2022,2000,g 10.0,8.0
# From MPEC 2022-PB4
51P-D/Harrington,e,5.4264,83.6553,269.2983,3.709063,0.1379773,0.54371090,2.2412,10/18.0/2022,2000,g 16.0,8.0
# From MPEC 2022-L66
52P/Harrington-Abell,e,10.2312,336.8341,139.5693,3.864186,0.1297529,0.54021122,49.0242,10/18.0/2022,2000,g 13.5,6.0
# From MPC100283
53P/Van Biesbroeck,e,6.6090,148.8158,134.5056,5.431249,0.0778672,0.55082075,183.9684,10/18.0/2022,2000,g  7.7,4.8
# From MPC 89011
54P/de Vico-Swift-NEAT,e,6.0645,358.8160,1.8611,3.789180,0.1336245,0.42643772,268.2439,10/18.0/2022,2000,g  9.0,4.0
# From MPC 31070
55P/Tempel-Tuttle,e,162.4915,235.4168,172.4759,10.35697,0.0295702,0.90547996,267.2474,10/18.0/2022,2000,g  9.0,4.0
# From MPC101100
56P/Slaughter-Burnham,e,8.1604,345.9892,44.0178,5.066630,0.0864222,0.50836905,196.9367,10/18.0/2022,2000,g  8.5,6.0
# From MPEC 2022-TA0
57P/duToit-Neujmin-Delporte,e,2.8523,188.7741,115.1750,3.444714,0.1541609,0.50092234,56.3820,10/18.0/2022,2000,g 12.5,6.0
# From MPEC 2021-O56
58P/Jackson-Neujmin,e,13.1079,159.0748,200.5274,4.087669,0.1192588,0.66278406,104.1410,10/18.0/2022,2000,g 15.5,6.0
# From MPEC 2021-F20
59P/Kearns-Kwee,e,9.3430,312.8037,127.5070,4.483939,0.1038041,0.47592063,154.8579,10/18.0/2022,2000,g  7.0,6.0
# From MPEC 2021-F20
60P/Tsuchinshan,e,3.5811,267.4589,216.9860,3.525711,0.1488792,0.53364102,210.0549,10/18.0/2022,2000,g 11.5,6.0
# From MPEC 2022-TA0
61P/Shajn-Schaldach,e,5.9996,162.9652,221.6620,3.691531,0.1389614,0.42413332,359.1912,10/18.0/2022,2000,g  6.0,10.0
# From MPC109147
62P/Tsuchinshan,e,4.7357,68.7393,47.3387,3.367566,0.1594887,0.62532949,290.9545,10/18.0/2022,2000,g  8.0,10.0
# From MPC 84320
63P/Wild,e,19.7287,358.0184,169.0016,5.611211,0.0741514,0.64949571,259.0857,10/18.0/2022,2000,g 10.5,6.0
# From MPEC 2021-F20
64P/Swift-Gehrels,e,8.9489,299.9314,97.1298,4.452700,0.1048984,0.68857016,151.3433,10/18.0/2022,2000,g 13.4,4.0
# From MPEC 2022-K19
65P/Gunn,e,9.1760,61.9915,213.8946,3.888441,0.1285408,0.24860574,234.9238,10/18.0/2022,2000,g  5.0,6.0
# From MPEC 2021-F20
66P/duToit,e,18.6392,21.7812,257.4773,6.069974,0.0659058,0.78602551,106.3573,10/18.0/2022,2000,g 15.0,4.0
# From MPEC 2022-PB4
67P/Churyumov-Gerasimenko,e,3.8719,36.3293,22.1471,3.456923,0.1533450,0.64981801,53.6554,10/18.0/2022,2000,g 11.0,4.0
# From MPEC 2022-H04
68P/Klemola,e,11.1115,175.0453,153.2328,4.958234,0.0892716,0.63734124,95.8704,10/18.0/2022,2000,g 12.7,4.0
# From MPC114607
69P/Taylor,e,22.0430,104.8089,343.3928,3.884937,0.1287147,0.41370257,168.5678,10/18.0/2022,2000,g  9.5,12.0
# From MPEC 2022-P82
70P/Kojima,e,6.5978,119.2611,1.8072,3.677825,0.1397389,0.45386913,48.7585,10/18.0/2022,2000,g 11.0,6.0
# From MPEC 2022-M88
71P/Clark,e,9.4380,59.3936,209.0682,3.138668,0.1772499,0.49379572,342.8419,10/18.0/2022,2000,g  9.8,6.0
# From MPC 89011
72P/Denning-Fujikawa,e,10.9485,26.7010,346.7243,4.307929,0.1102304,0.81865988,333.4473,10/18.0/2022,2000,g 17.5,10.0
# From MPEC 2022-TA0
73P/Schwassmann-Wachmann,e,11.2277,69.6098,199.4909,3.092225,0.1812581,0.68535107,9.6447,10/18.0/2022,2000,g 11.5,6.0
# From MPC106348
73P-T/Schwassmann-Wachmann,e,11.2298,69.6124,199.4713,3.093685,0.1811298,0.68554672,9.3814,10/18.0/2022,2000,g 11.5,6.0
# From MPEC 2022-P18
73P-U/Schwassmann-Wachmann,e,11.0694,70.6764,199.8772,2.876143,0.2020638,0.66608437,10.9357,10/18.0/2022,2000,g 19.0,4.0
# From MPEC 2022-P18
73P-V/Schwassmann-Wachmann,e,11.2463,69.4531,199.3262,3.168186,0.1747785,0.69232206,9.4456,10/18.0/2022,2000,g 19.0,4.0
# From MPEC 2022-R15
73P-W/Schwassmann-Wachmann,e,11.6019,67.3170,198.7312,4.590714,0.1002037,0.78205846,5.3651,10/18.0/2022,2000,g 18.2,4.0
# From MPEC 2022-R15
73P-X/Schwassmann-Wachmann,e,11.2556,69.5278,199.3737,3.096050,0.1809223,0.68545822,9.7133,10/18.0/2022,2000,g 17.6,4.0
# From MPEC 2022-R15
73P-Y/Schwassmann-Wachmann,e,11.1980,69.7673,199.4647,3.034128,0.1864890,0.67995783,10.2036,10/18.0/2022,2000,g 17.4,4.0
# From MPEC 2022-P18
73P-BU/Schwassmann-Wachmann,e,11.0694,70.6764,199.8772,2.876143,0.2020638,0.66608437,10.9357,10/18.0/2022,2000,g 19.0,4.0
# From MPEC 2022-P18
73P-BV/Schwassmann-Wachmann,e,11.2463,69.4531,199.3262,3.168186,0.1747785,0.69232206,9.4456,10/18.0/2022,2000,g 19.0,4.0
# From MPEC 2022-R15
73P-BW/Schwassmann-Wachmann,e,11.6019,67.3170,198.7312,4.590714,0.1002037,0.78205846,5.3651,10/18.0/2022,2000,g 18.2,4.0
# From MPEC 2022-R15
73P-BX/Schwassmann-Wachmann,e,11.2556,69.5278,199.3737,3.096050,0.1809223,0.68545822,9.7133,10/18.0/2022,2000,g 17.6,4.0
# From MPEC 2022-R15
73P-BY/Schwassmann-Wachmann,e,11.1980,69.7673,199.4647,3.034128,0.1864890,0.67995783,10.2036,10/18.0/2022,2000,g 17.4,4.0
# From MPEC 2022-TA0
74P/Smirnova-Chernykh,e,6.2280,56.1398,137.2180,4.576999,0.1006544,0.09663688,162.0798,10/18.0/2022,2000,g  5.0,6.0
# From MPEC 2022-K19
76P/West-Kohoutek-Ikemura,e,30.4776,84.1046,359.9354,3.470873,0.1524214,0.53860255,165.7945,10/18.0/2022,2000,g  8.0,12.0
# From MPEC 2022-M21
77P/Longmore,e,24.3189,14.7683,196.7492,3.623862,0.1428718,0.35188647,336.1154,10/18.0/2022,2000,g  7.0,8.0
# From MPEC 2021-O56
78P/Gehrels,e,6.2562,210.5165,192.6390,3.737281,0.1364176,0.46278473,176.4085,10/18.0/2022,2000,g  5.5,8.0
# From MPC 94675
79P/du Toit-Hartley,e,3.1485,280.5221,281.7837,2.943486,0.1951691,0.61906530,292.1986,10/18.0/2022,2000,g 16.0,4.0
# From MPEC 2014-P41
80P/Peters-Hartley,e,29.9226,259.7969,339.2470,4.024087,0.1220965,0.59858647,353.6675,10/18.0/2022,2000,g  9.0,4.0
# From MPEC 2022-TA0
81P/Wild,e,3.2365,136.0989,41.6337,3.454099,0.1535330,0.53723667,350.9987,10/18.0/2022,2000,g  7.0,6.0
# From MPC133426
82P/Gehrels,e,1.1291,239.3191,226.3973,4.133554,0.1172786,0.12194672,185.0646,10/18.0/2022,2000,g 15.0,4.0
# From MPEC 2020-FB5
84P/Giclas,e,7.5503,108.1472,281.6178,3.549783,0.1473674,0.51603971,127.5881,10/18.0/2022,2000,g  9.5,8.0
# From MPEC 2022-QD9
86P/Wild,e,15.4742,72.3489,179.4625,3.602253,0.1441593,0.37232889,36.3649,10/18.0/2022,2000,g 11.0,6.0
# From MPEC 2020-SI8
87P/Bus,e,3.1612,180.9674,28.2933,3.466432,0.1527144,0.41211431,130.7440,10/18.0/2022,2000,g  7.2,10.0
# From MPEC 2022-ED3
88P/Howell,e,4.3823,56.6725,235.9348,3.105953,0.1800577,0.56379770,135.3433,10/18.0/2022,2000,g 11.0,6.0
# From MPC100283
89P/Russell,e,12.0713,41.3492,250.3969,3.753629,0.1355274,0.40820468,288.7787,10/18.0/2022,2000,g 11.5,6.0
# From MPEC 2022-K19
90P/Gehrels,e,9.6514,13.2055,29.0564,6.051158,0.0662135,0.51091616,128.7696,10/18.0/2022,2000,g  8.5,6.0
# From MPEC 2021-S45
91P/Russell,e,14.1395,246.9154,355.9241,3.903911,0.1277775,0.33389790,90.1369,10/18.0/2022,2000,g  7.5,6.0
# From MPEC 2014-J58
92P/Sanguin,e,19.5083,181.3616,163.8018,5.343128,0.0798014,0.66102384,221.9830,10/18.0/2022,2000,g 12.0,6.0
# From NK 2707
93P/Lovas,e,12.2033,339.6368,74.8312,4.380264,0.1075112,0.61346627,220.9848,10/18.0/2022,2000,g  9.0,4.0
# From MPEC 2022-TA0
94P/Russell,e,6.1878,70.8577,92.4294,3.508720,0.1499619,0.36529017,327.7394,10/18.0/2022,2000,g  9.0,6.0
# From MPC 75717
95P/Chiron,e,6.9198,209.3017,339.4998,13.71209,0.0194110,0.37623014,190.2611,10/18.0/2022,2000,g  6.5,2.0
# From MPEC 2022-ST7
96P/Machholz,e,57.5042,93.9556,14.7486,3.030322,0.1868405,0.96158091,340.3650,10/18.0/2022,2000,g 13.0,4.8
# From MPEC 2022-C56
97P/Metcalf-Brewington,e,17.9521,184.0768,229.9927,4.760873,0.0948799,0.46009804,23.1861,10/18.0/2022,2000,g  5.5,6.0
# From MPEC 2021-W31
98P/Takamizawa,e,10.5609,114.6822,157.8114,3.794081,0.1333657,0.56220512,86.8698,10/18.0/2022,2000,g  9.0,8.0
